{
  "type": "FeatureCollection",
  "features": [
    {
      "type": "Feature",
      "properties": {
        "norad_id": 40238,
        "name": "COSMOS 2251 DEB",
        "group": "cosmos-2251-debris",
        "lat": -73.26767992106628,
        "lon": -48.89609814967614,
        "alt_km": 1390.4170530459169,
        "timestamp": "2025-12-16T03:53:27.453718+00:00",
        "meta_object_name": "COSMOS 2251 DEB",
        "meta_object_id": "1993-036BVT",
        "meta_epoch": "2025-12-13T22:00:17.688960",
        "meta_mean_motion": 13.25118761,
        "meta_eccentricity": 0.05494159,
        "meta_inclination": 73.9889,
        "meta_ra_of_asc_node": 61.7905,
        "meta_arg_of_pericenter": 33.3831,
        "meta_mean_anomaly": 330.0665,
        "meta_ephemeris_type": 0,
        "meta_classification_type": "U",
        "meta_norad_cat_id": 40238,
        "meta_element_set_no": 999,
        "meta_rev_at_epoch": 54052,
        "meta_bstar": 0.0015955991,
        "meta_mean_motion_dot": 1.546e-05,
        "meta_mean_motion_ddot": 0,
        "tle_line1": "1 40238U 93036BVT 25347.91687140  .00001546  00000+0  15956-2 0  9998",
        "tle_line2": "2 40238  73.9889  61.7905 0549415  33.3831 330.0665 13.25118761540524"
      },
      "geometry": {
        "type": "Point",
        "coordinates": [
          -48.89609814967614,
          -73.26767992106628
        ]
      }
    },
    {
      "type": "Feature",
      "properties": {
        "norad_id": 40239,
        "name": "COSMOS 2251 DEB",
        "group": "cosmos-2251-debris",
        "lat": -35.55112859280039,
        "lon": -102.52261681131216,
        "alt_km": 659.5541335595981,
        "timestamp": "2025-12-16T03:53:27.453728+00:00",
        "meta_object_name": "COSMOS 2251 DEB",
        "meta_object_id": "1993-036BVU",
        "meta_epoch": "2025-12-10T14:12:54.993024",
        "meta_mean_motion": 14.6197936,
        "meta_eccentricity": 0.0084758,
        "meta_inclination": 74.0316,
        "meta_ra_of_asc_node": 279.9471,
        "meta_arg_of_pericenter": 31.8637,
        "meta_mean_anomaly": 148.8031,
        "meta_ephemeris_type": 0,
        "meta_classification_type": "U",
        "meta_norad_cat_id": 40239,
        "meta_element_set_no": 999,
        "meta_rev_at_epoch": 59579,
        "meta_bstar": 0.00074089,
        "meta_mean_motion_dot": 3.879e-05,
        "meta_mean_motion_ddot": 0,
        "tle_line1": "1 40239U 93036BVU 25344.59230316  .00003879  00000+0  74089-3 0  9993",
        "tle_line2": "2 40239  74.0316 279.9471 0084758  31.8637 148.8031 14.61979360595796"
      },
      "geometry": {
        "type": "Point",
        "coordinates": [
          -102.52261681131216,
          -35.55112859280039
        ]
      }
    },
    {
      "type": "Feature",
      "properties": {
        "norad_id": 40792,
        "name": "COSMOS 2251 DEB",
        "group": "cosmos-2251-debris",
        "lat": -15.925972057088421,
        "lon": -134.46384176480515,
        "alt_km": 666.3880964753716,
        "timestamp": "2025-12-16T03:53:27.453739+00:00",
        "meta_object_name": "COSMOS 2251 DEB",
        "meta_object_id": "1993-036BVV",
        "meta_epoch": "2025-12-13T21:48:53.616096",
        "meta_mean_motion": 14.67590278,
        "meta_eccentricity": 0.00153774,
        "meta_inclination": 74.0462,
        "meta_ra_of_asc_node": 45.2013,
        "meta_arg_of_pericenter": 149.8992,
        "meta_mean_anomaly": 27.0176,
        "meta_ephemeris_type": 0,
        "meta_classification_type": "U",
        "meta_norad_cat_id": 40792,
        "meta_element_set_no": 999,
        "meta_rev_at_epoch": 63201,
        "meta_bstar": 0.0011407186,
        "meta_mean_motion_dot": 6.465e-05,
        "meta_mean_motion_ddot": 0,
        "tle_line1": "1 40792U 93036BVV 25347.90895389  .00006465  00000+0  11407-2 0  9990",
        "tle_line2": "2 40792  74.0462  45.2013 0015377 149.8992  27.0176 14.67590278632011"
      },
      "geometry": {
        "type": "Point",
        "coordinates": [
          -134.46384176480515,
          -15.925972057088421
        ]
      }
    },
    {
      "type": "Feature",
      "properties": {
        "norad_id": 40793,
        "name": "COSMOS 2251 DEB",
        "group": "cosmos-2251-debris",
        "lat": 62.6135763869164,
        "lon": -54.559956341989114,
        "alt_km": 1011.3643652915525,
        "timestamp": "2025-12-16T03:53:27.453749+00:00",
        "meta_object_name": "COSMOS 2251 DEB",
        "meta_object_id": "1993-036BVW",
        "meta_epoch": "2025-11-17T22:59:08.433600",
        "meta_mean_motion": 14.0559149,
        "meta_eccentricity": 0.02150611,
        "meta_inclination": 73.9793,
        "meta_ra_of_asc_node": 208.5839,
        "meta_arg_of_pericenter": 10.058,
        "meta_mean_anomaly": 350.4754,
        "meta_ephemeris_type": 0,
        "meta_classification_type": "U",
        "meta_norad_cat_id": 40793,
        "meta_element_set_no": 999,
        "meta_rev_at_epoch": 67897,
        "meta_bstar": 0.0015211732,
        "meta_mean_motion_dot": 3.024e-05,
        "meta_mean_motion_ddot": 0,
        "tle_line1": "1 40793U 93036BVW 25321.95773650  .00003024  00000+0  15212-2 0  9990",
        "tle_line2": "2 40793  73.9793 208.5839 0215061  10.0580 350.4754 14.05591490678970"
      },
      "geometry": {
        "type": "Point",
        "coordinates": [
          -54.559956341989114,
          62.6135763869164
        ]
      }
    },
    {
      "type": "Feature",
      "properties": {
        "norad_id": 40794,
        "name": "COSMOS 2251 DEB",
        "group": "cosmos-2251-debris",
        "lat": -9.56163498425549,
        "lon": -59.892319771043155,
        "alt_km": 588.0377974797902,
        "timestamp": "2025-12-16T03:53:27.453759+00:00",
        "meta_object_name": "COSMOS 2251 DEB",
        "meta_object_id": "1993-036BVX",
        "meta_epoch": "2025-12-13T15:37:41.141568",
        "meta_mean_motion": 14.93159868,
        "meta_eccentricity": 0.00107848,
        "meta_inclination": 73.9763,
        "meta_ra_of_asc_node": 122.399,
        "meta_arg_of_pericenter": 261.0962,
        "meta_mean_anomaly": 116.104,
        "meta_ephemeris_type": 0,
        "meta_classification_type": "U",
        "meta_norad_cat_id": 40794,
        "meta_element_set_no": 999,
        "meta_rev_at_epoch": 61938,
        "meta_bstar": 0.0047306735,
        "meta_mean_motion_dot": 0.00049759,
        "meta_mean_motion_ddot": 0,
        "tle_line1": "1 40794U 93036BVX 25347.65117062  .00049759  00000+0  47307-2 0  9990",
        "tle_line2": "2 40794  73.9763 122.3990 0010784 261.0962 116.1040 14.93159868619387"
      },
      "geometry": {
        "type": "Point",
        "coordinates": [
          -59.892319771043155,
          -9.56163498425549
        ]
      }
    },
    {
      "type": "Feature",
      "properties": {
        "norad_id": 40796,
        "name": "COSMOS 2251 DEB",
        "group": "cosmos-2251-debris",
        "lat": 73.93100066472522,
        "lon": -140.09345741576522,
        "alt_km": 655.5137232377556,
        "timestamp": "2025-12-16T03:53:27.453770+00:00",
        "meta_object_name": "COSMOS 2251 DEB",
        "meta_object_id": "1993-036BVZ",
        "meta_epoch": "2025-12-12T16:55:09.916896",
        "meta_mean_motion": 14.81698665,
        "meta_eccentricity": 0.00560879,
        "meta_inclination": 74.0118,
        "meta_ra_of_asc_node": 142.2573,
        "meta_arg_of_pericenter": 278.9039,
        "meta_mean_anomaly": 95.9751,
        "meta_ephemeris_type": 0,
        "meta_classification_type": "U",
        "meta_norad_cat_id": 40796,
        "meta_element_set_no": 999,
        "meta_rev_at_epoch": 76158,
        "meta_bstar": 0.0013346453,
        "meta_mean_motion_dot": 0.00010785,
        "meta_mean_motion_ddot": 0,
        "tle_line1": "1 40796U 93036BVZ 25346.70497589  .00010785  00000+0  13346-2 0  9995",
        "tle_line2": "2 40796  74.0118 142.2573 0056087 278.9039  95.9751 14.81698665761584"
      },
      "geometry": {
        "type": "Point",
        "coordinates": [
          -140.09345741576522,
          73.93100066472522
        ]
      }
    },
    {
      "type": "Feature",
      "properties": {
        "norad_id": 40797,
        "name": "COSMOS 2251 DEB",
        "group": "cosmos-2251-debris",
        "lat": 25.341705487766873,
        "lon": -99.6546637960684,
        "alt_km": 574.7970007281492,
        "timestamp": "2025-12-16T03:53:27.453780+00:00",
        "meta_object_name": "COSMOS 2251 DEB",
        "meta_object_id": "1993-036BWA",
        "meta_epoch": "2025-11-19T18:43:16.602528",
        "meta_mean_motion": 15.10509474,
        "meta_eccentricity": 0.00703947,
        "meta_inclination": 73.92,
        "meta_ra_of_asc_node": 143.0892,
        "meta_arg_of_pericenter": 60.6639,
        "meta_mean_anomaly": 300.156,
        "meta_ephemeris_type": 0,
        "meta_classification_type": "U",
        "meta_norad_cat_id": 40797,
        "meta_element_set_no": 999,
        "meta_rev_at_epoch": 64297,
        "meta_bstar": 0.00072810385,
        "meta_mean_motion_dot": 0.00012707,
        "meta_mean_motion_ddot": 0,
        "tle_line1": "1 40797U 93036BWA 25323.78005327  .00012707  00000+0  72810-3 0  9992",
        "tle_line2": "2 40797  73.9200 143.0892 0070394  60.6639 300.1560 15.10509474642979"
      },
      "geometry": {
        "type": "Point",
        "coordinates": [
          -99.6546637960684,
          25.341705487766873
        ]
      }
    }
  ]
}